ESTCUBE 1               
1 39161U 13021C   21271.15999441  .00000313  00000-0  56971-4 0  9991
2 39161  97.9333 349.9671 0009287 174.7450 185.3864 14.72536914450869
FENGYUN 3C              
1 39260U 13052A   21271.09788188  .00000018  00000-0  30261-4 0  9998
2 39260  98.4897 307.0644 0010363 315.8965  44.1388 14.15879018414798
CASSIOPE                
1 39265U 13055A   21270.89696757  .00010880  00000-0  29943-3 0  9995
2 39265  80.9680 184.4669 0645620  13.0251 348.6740 14.33188202414666
ZACUBE-1 (TSHEPISOSAT)  
1 39417U 13066B   21270.76996406  .00000518  00000-0  70559-4 0  9993
2 39417  97.6036 249.8521 0058276 184.2392 175.8336 14.81603175424228
CINEMA-3 (KHUSAT-2)     
1 39426U 13066L   21270.79301534  .00000474  00000-0  81334-4 0  9992
2 39426  97.7646 217.7194 0104113 358.1195   1.9605 14.69733473420686
TRITON-1                
1 39427U 13066M   21271.08401361  .00000820  00000-0  13683-3 0  9991
2 39427  97.7827 213.8591 0113922  23.7491 336.8914 14.68319277420479
DELFI-N3XT              
1 39428U 13066N   21270.79280800  .00001239  00000-0  20117-3 0  9997
2 39428  97.7861 212.0726 0120653  37.5751 323.3809 14.68125125419985
GOMX-1                  
1 39430U 13066Q   21271.08431669  .00000285  00000-0  59885-4 0  9999
2 39430  97.8096 188.2512 0150848 151.1310 209.8347 14.59677929418011
BRITE-PL1 (LEM)         
1 39431U 13066R   21270.92333554  .00000139  00000-0  40202-4 0  9997
2 39431  97.7344 142.4448 0201219 322.0139  36.7005 14.47169267414397
ICUBE-1                 
1 39432U 13066S   21270.50473093  .00000691  00000-0  74555-4 0  9996
2 39432  97.4737 283.1541 0033191  63.8344 296.6282 14.90996180425518
HUMSAT-D                
1 39433U 13066T   21270.85883383  .00001241  00000-0  12330-3 0  9996
2 39433  97.4662 290.6509 0031291  41.6064 318.7529 14.93051875426028
VELOX-PII               
1 39438U 13066Y   21271.18602673  .00000432  00000-0  64128-4 0  9993
2 39438  97.6545 240.9972 0068946 229.9556 129.5595 14.78293590423383
FIRST-MOVE              
1 39439U 13066Z   21271.19798750  .00001049  00000-0  13163-3 0  9994
2 39439  97.6080 251.9521 0064250 180.2241 179.8955 14.82773022424268
CUBEBUG-2 (LO-74)       
1 39440U 13066AA  21270.86610316  .00000556  00000-0  83645-4 0  9995
2 39440  97.6880 235.2186 0078180 263.2861  95.9448 14.76328761421538
NEE-02 KRYSAOR          
1 39441U 13066AB  21271.13791978  .00000404  00000-0  64252-4 0  9996
2 39441  97.6979 232.7775 0079858 274.3055  84.9033 14.75245734422519
FUNCUBE-1 (AO-73)       
1 39444U 13066AE  21270.89339804  .00000617  00000-0  80996-4 0  9996
2 39444  97.5936 252.3504 0057582 173.5686 186.6280 14.82528099422613
HINCUBE                 
1 39445U 13066AF  21270.71052988  .00000449  00000-0  60964-4 0  9999
2 39445  97.5951 252.0191 0057544 176.0796 184.0881 14.82357201422533
UWE-3                   
1 39446U 13066AG  21270.86604077  .00000509  00000-0  73428-4 0  9994
2 39446  97.6486 242.0403 0068385 224.5991 134.9707 14.78868456421640
AIST-1 (RS-41)          
1 39492U 13078C   21271.03229630  .00000275  00000-0  27219-4 0  9993
2 39492  82.4175 127.6387 0018136 255.6652 104.2567 14.88077580420751
SPROUT                  
1 39770U 14029E   21271.25699564  .00001453  00000-0  16169-3 0  9990
2 39770  97.9241  22.5003 0007818 224.5955 135.4662 14.88671204398635
UNISAT-6                
1 40012U 14033C   21270.77727598  .00000317  00000-0  54049-4 0  9999
2 40012  97.6702 107.7947 0056697 289.9360  69.5747 14.74381651391275
BUGSAT-1 (TITA)         
1 40014U 14033E   21271.24039257  .00000840  00000-0  80273-4 0  9991
2 40014  98.1202 254.4653 0031144 182.3476 177.7604 14.95847031396930
DUCHIFAT-1              
1 40021U 14033M   21270.78254272  .00001053  00000-0  11101-3 0  9993
2 40021  97.9783 212.0986 0012426 180.5621 179.5585 14.91490211395535
NANOSATC-BR1            
1 40024U 14033Q   21271.07927069  .00000859  00000-0  93669-4 0  9993
2 40024  97.9553 207.0180 0011688 185.0270 175.0832 14.90568124395402
QB50P1                  
1 40025U 14033R   21270.79856936  .00000742  00000-0  83700-4 0  9992
2 40025  97.9348 201.7684 0011739 195.3995 164.6867 14.89549546394653
DTUSAT-2                
1 40030U 14033W   21270.76527665  .00000545  00000-0  63776-4 0  9991
2 40030  97.9160 197.9939 0011291 191.6977 168.3979 14.89088237394540
QB50P2                  
1 40032U 14033Y   21270.79851704  .00000723  00000-0  82677-4 0  9999
2 40032  97.9168 198.0354 0011213 192.4754 167.6187 14.89049700394522
POLYITAN-1              
1 40042U 14033AJ  21270.79572829  .00000878  00000-0  98408-4 0  9998
2 40042  97.9445 202.6651 0014069 187.8284 172.2716 14.89375538394544
TIGRISAT                
1 40043U 14033AK  21270.78636585  .00000242  00000-0  42713-4 0  9991
2 40043  97.6663 109.1832 0058347 287.5851  71.8990 14.74588655390916
AISAT                   
1 40054U 14034B   21271.00692393  .00000978  00000-0  14126-3 0  9991
2 40054  98.3356  67.6063 0013869  77.3263 282.9496 14.78562754390687
CANX-4                  
1 40055U 14034C   21271.18793223  .00000279  00000-0  49461-4 0  9990
2 40055  98.3216  55.2206 0015417 111.2709 249.0147 14.75095287390089
CANX-5                  
1 40056U 14034D   21270.92194083  .00000280  00000-0  49596-4 0  9992
2 40056  98.3216  54.9316 0015428 112.2598 248.0248 14.75087725380827
VELOX-I                 
1 40057U 14034E   21271.08291768  .00000596  00000-0  89759-4 0  9994
2 40057  98.3408  68.7681 0012145  90.0227 270.2372 14.78281053390700
METEOR-M 2              
1 40069U 14037A   21271.12000169 -.00000016  00000-0  11973-4 0  9999
2 40069  98.4549 295.6278 0006056  16.1345 344.0035 14.20688744374610
DX1                     
1 40071U 14037C   21271.04253765  .00000199  00000-0  32913-4 0  9993
2 40071  98.4420 121.2238 0009659  79.3274 280.9030 14.81543581390487
UKUBE-1                 
1 40074U 14037F   21271.09499547  .00000517  00000-0  68260-4 0  9999
2 40074  98.4160 132.6354 0005624  56.7650 303.4099 14.84643509391134
FIREBIRD 3              
1 40377U 15003B   21270.92492798  .00010416  00000-0  36825-3 0  9991
2 40377  99.1131  73.7724 0115287 188.9336 170.9846 15.23275305368385
FIREBIRD 4              
1 40378U 15003C   21271.02918728  .00010262  00000-0  36217-3 0  9994
2 40378  99.1137  74.0569 0115349 188.3639 171.5673 15.23331588368417
GRIFEX                  
1 40379U 15003D   21271.01038607  .00006374  00000-0  25364-3 0  9993
2 40379  99.1100  62.4469 0126117 223.4014 135.7232 15.18653746367757
CP10 (EXOCUBE)          
1 40380U 15003E   21270.83782062  .00004918  00000-0  20836-3 0  9996
2 40380  99.1111  56.2358 0131810 244.2930 114.4640 15.16213003367329
DEORBITSAIL             
1 40719U 15032E   21270.94360744  .00000792  00000-0  11782-3 0  9991
2 40719  97.8127 152.6962 0017011 131.5155 228.7519 14.77488304335112
NUDT-PHONESAT           
1 40900U 15049B   21271.13730705  .00006590  00000-0  24844-3 0  9996
2 40900  97.4191 284.6243 0012940 130.2424 302.8839 15.27325721334498
XW-2A                   
1 40903U 15049E   21271.17132503  .00006467  00000-0  13330-3 0  9996
2 40903  97.2245 325.3326 0011971   8.5686  76.0564 15.46175389338666
XW-2C                   
1 40906U 15049H   21271.20122863  .00001762  00000-0  92424-4 0  9996
2 40906  97.4903 272.3046 0014157 183.8997 239.4225 15.16987587333148
XW-2D                   
1 40907U 15049J   21270.97287490  .00001922  00000-0  99529-4 0  9999
2 40907  97.4885 271.9097 0013551 180.9919 231.2646 15.17340106333146
LILACSAT-2              
1 40908U 15049K   21271.21508192  .00000740  00000-0  43619-4 0  9999
2 40908  97.5089 269.8422 0014971 199.1423 220.4920 15.14582802332783
XW-2E                   
1 40909U 15049L   21271.21859061  .00002834  00000-0  13475-3 0  9996
2 40909  97.4688 276.2928 0013364 164.3030 257.5152 15.19945540333544
XW-2F                   
1 40910U 15049M   21271.12532973  .00002963  00000-0  14274-3 0  9999
2 40910  97.4750 275.2869 0014424 165.5729 263.4905 15.19444190333317
XW-2B                   
1 40911U 15049N   21271.24579083  .00001945  00000-0  10095-3 0  9992
2 40911  97.4881 272.8470 0013351 181.4339 234.1111 15.17254814333073
KAITUO 1B               
1 40912U 15049P   21271.21216759  .00003361  00000-0  14971-3 0  9999
2 40912  97.4457 279.7575 0015198 136.8797 288.7715 15.22037046333828
TIANWANG 1A (TW-1A)     
1 40928U 15051D   21271.15341583  .00010822  00000-0  21433-3 0  9997
2 40928  97.0713 293.6411 0007081 277.5128 157.1362 15.47208196337568
LAPAN-A2                
1 40931U 15052B   21270.73118742  .00000712  00000-0  10049-4 0  9993
2 40931   5.9990 242.9492 0013249  48.4045 311.7349 14.76690733324448
LQSAT                   
1 40958U 15057A   21271.03746136  .00000105  00000-0  23684-4 0  9990
2 40958  97.7918 323.4361 0019558  86.2428 274.1024 14.73199384321341
ATHENOXAT 1             
1 41168U 15077C   21271.11432120  .00004819  00000-0  20625-3 0  9997
2 41168  14.9864 225.9907 0010734 168.4721 288.0330 15.16187003320384
GALASSIA                
1 41170U 15077E   21271.19945958  .00004630  00000-0  19570-3 0  9994
2 41170  14.9880 215.8505 0012082 197.8135 162.1763 15.16347167320471
VELOX-II                
1 41171U 15077F   21270.37959625  .00003670  00000-0  16494-3 0  9995
2 41171  14.9917 283.4265 0008471  49.2348 310.8708 15.12861670319688
CHUBUSAT-2              
1 41338U 16012B   21270.64115337  .00000675  00000-0  45418-4 0  9995
2 41338  31.0023 256.0678 0013551  66.6288 293.5772 15.00614622307962
CHUBUSAT-3              
1 41339U 16012C   21271.18644963  .00000639  00000-0  42468-4 0  9990
2 41339  31.0118 249.7224 0013333  79.9652 280.2499 15.00756261308049
HORYU-4                 
1 41340U 16012D   21270.89721423  .00001354  00000-0  94162-4 0  9999
2 41340  31.0040 233.8430 0013684 110.9272 249.2830 15.02034693308203
